BEIDOU-3 G3 (PRN 143)   
1 45807U 20040A   26065.81738347 -.00000356  00000+0  00000+0 0  9993
2 45807   2.1959  67.1365 0004591 319.6533 182.5056  1.00274500 21042
GALAXY 30 (WAAS/PRN 135)
1 46114U 20056C   26065.55677565  .00000000  00000+0  00000+0 0  9992
2 46114   0.0219 155.3844 0002048 200.5806 243.7632  1.00271670 20266
QZS-1R (QZSS/PRN 196)   
1 49336U 21096A   26065.82405683 -.00000265  00000+0  00000+0 0  9990
2 49336  37.2488  81.0937 0747759 269.7649 244.5984  1.00290649 15989
QZS-6 (QZSS/PRN 200)    
1 62876U 25023A   26065.81348344 -.00000236  00000+0  00000+0 0  9995
2 62876   0.0338 296.0742 0001829  48.7188 203.0676  1.00269676  3937
